UNKNOWN                 
1 82529U          25354.00804603  .00000355  00000+0  61009-3 0  9997
2 82529  99.7901  77.1744 0238845 222.6747 316.3672 13.41113868590719
UNKNOWN                 
1 82560U          25351.80652367  .00001169  00000+0  97758-3 0  9999
2 82560  99.9904 294.7352 0011231 298.8595  89.4915 13.90656296612573
UNKNOWN                 
1 82597U          25351.79562740  .00001401  00000+0  48715-3 0  9990
2 82597  66.7693 134.6791 0097930 303.6087  55.5697 14.35751614629704
UNKNOWN                 
1 82617U          25352.04709318  .00000471  00000+0  12927-3 0  9998
2 82617  74.0266 233.6763 0038640 177.7231 182.4112 14.49405491637590
UNKNOWN                 
1 82627U          25345.69438387  .00000836  00000+0  21637-2 0  9999
2 82627  82.4766 249.3808 0011132  82.1399 307.0148 13.16298541578692
UNKNOWN                 
1 82642U          25353.47125531  .00001508  00000+0  85291-3 0  9999
2 82642  98.9750 263.9685 0134475 218.3305 140.8248 14.07240642617086
UNKNOWN                 
1 82683U          25352.46802883  .00000826  00000+0  32556-3 0  9992
2 82683  98.1736  60.9876 0210587  19.4828 341.4247 14.20139753463085
UNKNOWN                 
1 82693U          25351.16367545  .00002622  00000+0  30452-2 0  9998
2 82693 100.5291 315.0817 0045086  10.8804 349.3303 13.69532860554368
UNKNOWN                 
1 82698U          25352.14438252  .00001201  00000+0  75581-3 0  9991
2 82698  61.6110 135.9998 0684305 291.6399  61.3080 13.29445843539096
UNKNOWN                 
1 82708U          25352.53118006  .00000521  00000+0  21598-2 0  9990
2 82708 102.1633 196.2465 0063456 276.7232  82.6641 12.90572982524260
UNKNOWN                 
1 82729U          25353.63953803 -.00000023  00000+0  63426-4 0  9993
2 82729  67.9645 133.9654 0831922   6.2036 354.8529 12.17753167536044
UNKNOWN                 
1 82739U          25352.40887906  .00001718  00000+0  14437-2 0  9995
2 82739  99.0818 148.5506 0173489 277.9354 107.5027 13.82726982606893
