CCSDS_OMM_VERS = 2.0
CREATION_DATE  = 
ORIGINATOR     = 

OBJECT_NAME    = UNKNOWN
OBJECT_ID      = 
CENTER_NAME    = EARTH
REF_FRAME      = TEME
TIME_SYSTEM    = UTC
MEAN_ELEMENT_THEORY = SGP/SGP4

EPOCH          = 2025-12-20T00:11:35.176992
MEAN_MOTION    = 13.41113868
ECCENTRICITY   = .0238845
INCLINATION    = 99.7901
RA_OF_ASC_NODE = 77.1744
ARG_OF_PERICENTER = 222.6747
MEAN_ANOMALY   = 316.3672

EPHEMERIS_TYPE = 0
CLASSIFICATION_TYPE = U
NORAD_CAT_ID   = 82529
ELEMENT_SET_NO = 999
REV_AT_EPOCH   = 59071
BSTAR          = .61009E-3
MEAN_MOTION_DOT = .355E-5
MEAN_MOTION_DDOT = 0

CCSDS_OMM_VERS = 2.0
CREATION_DATE  = 
ORIGINATOR     = 

OBJECT_NAME    = UNKNOWN
OBJECT_ID      = 
CENTER_NAME    = EARTH
REF_FRAME      = TEME
TIME_SYSTEM    = UTC
MEAN_ELEMENT_THEORY = SGP/SGP4

EPOCH          = 2025-12-17T19:21:23.645088
MEAN_MOTION    = 13.90656296
ECCENTRICITY   = .0011231
INCLINATION    = 99.9904
RA_OF_ASC_NODE = 294.7352
ARG_OF_PERICENTER = 298.8595
MEAN_ANOMALY   = 89.4915

EPHEMERIS_TYPE = 0
CLASSIFICATION_TYPE = U
NORAD_CAT_ID   = 82560
ELEMENT_SET_NO = 999
REV_AT_EPOCH   = 61257
BSTAR          = .97758E-3
MEAN_MOTION_DOT = .1169E-4
MEAN_MOTION_DDOT = 0

CCSDS_OMM_VERS = 2.0
CREATION_DATE  = 
ORIGINATOR     = 

OBJECT_NAME    = UNKNOWN
OBJECT_ID      = 
CENTER_NAME    = EARTH
REF_FRAME      = TEME
TIME_SYSTEM    = UTC
MEAN_ELEMENT_THEORY = SGP/SGP4

EPOCH          = 2025-12-17T19:05:42.207360
MEAN_MOTION    = 14.35751614
ECCENTRICITY   = .009793
INCLINATION    = 66.7693
RA_OF_ASC_NODE = 134.6791
ARG_OF_PERICENTER = 303.6087
MEAN_ANOMALY   = 55.5697

EPHEMERIS_TYPE = 0
CLASSIFICATION_TYPE = U
NORAD_CAT_ID   = 82597
ELEMENT_SET_NO = 999
REV_AT_EPOCH   = 62970
BSTAR          = .48715E-3
MEAN_MOTION_DOT = .1401E-4
MEAN_MOTION_DDOT = 0

CCSDS_OMM_VERS = 2.0
CREATION_DATE  = 
ORIGINATOR     = 

OBJECT_NAME    = UNKNOWN
OBJECT_ID      = 
CENTER_NAME    = EARTH
REF_FRAME      = TEME
TIME_SYSTEM    = UTC
MEAN_ELEMENT_THEORY = SGP/SGP4

EPOCH          = 2025-12-18T01:07:48.850752
MEAN_MOTION    = 14.49405491
ECCENTRICITY   = .003864
INCLINATION    = 74.0266
RA_OF_ASC_NODE = 233.6763
ARG_OF_PERICENTER = 177.7231
MEAN_ANOMALY   = 182.4112

EPHEMERIS_TYPE = 0
CLASSIFICATION_TYPE = U
NORAD_CAT_ID   = 82617
ELEMENT_SET_NO = 999
REV_AT_EPOCH   = 63759
BSTAR          = .12927E-3
MEAN_MOTION_DOT = .471E-5
MEAN_MOTION_DDOT = 0

CCSDS_OMM_VERS = 2.0
CREATION_DATE  = 
ORIGINATOR     = 

OBJECT_NAME    = UNKNOWN
OBJECT_ID      = 
CENTER_NAME    = EARTH
REF_FRAME      = TEME
TIME_SYSTEM    = UTC
MEAN_ELEMENT_THEORY = SGP/SGP4

EPOCH          = 2025-12-11T16:39:54.766368
MEAN_MOTION    = 13.16298541
ECCENTRICITY   = .0011132
INCLINATION    = 82.4766
RA_OF_ASC_NODE = 249.3808
ARG_OF_PERICENTER = 82.1399
MEAN_ANOMALY   = 307.0148

EPHEMERIS_TYPE = 0
CLASSIFICATION_TYPE = U
NORAD_CAT_ID   = 82627
ELEMENT_SET_NO = 999
REV_AT_EPOCH   = 57869
BSTAR          = .21637E-2
MEAN_MOTION_DOT = .836E-5
MEAN_MOTION_DDOT = 0

CCSDS_OMM_VERS = 2.0
CREATION_DATE  = 
ORIGINATOR     = 

OBJECT_NAME    = UNKNOWN
OBJECT_ID      = 
CENTER_NAME    = EARTH
REF_FRAME      = TEME
TIME_SYSTEM    = UTC
MEAN_ELEMENT_THEORY = SGP/SGP4

EPOCH          = 2025-12-19T11:18:36.458784
MEAN_MOTION    = 14.07240642
ECCENTRICITY   = .0134475
INCLINATION    = 98.9750
RA_OF_ASC_NODE = 263.9685
ARG_OF_PERICENTER = 218.3305
MEAN_ANOMALY   = 140.8248

EPHEMERIS_TYPE = 0
CLASSIFICATION_TYPE = U
NORAD_CAT_ID   = 82642
ELEMENT_SET_NO = 999
REV_AT_EPOCH   = 61708
BSTAR          = .85291E-3
MEAN_MOTION_DOT = .1508E-4
MEAN_MOTION_DDOT = 0

CCSDS_OMM_VERS = 2.0
CREATION_DATE  = 
ORIGINATOR     = 

OBJECT_NAME    = UNKNOWN
OBJECT_ID      = 
CENTER_NAME    = EARTH
REF_FRAME      = TEME
TIME_SYSTEM    = UTC
MEAN_ELEMENT_THEORY = SGP/SGP4

EPOCH          = 2025-12-18T11:13:57.690912
MEAN_MOTION    = 14.20139753
ECCENTRICITY   = .0210587
INCLINATION    = 98.1736
RA_OF_ASC_NODE = 60.9876
ARG_OF_PERICENTER = 19.4828
MEAN_ANOMALY   = 341.4247

EPHEMERIS_TYPE = 0
CLASSIFICATION_TYPE = U
NORAD_CAT_ID   = 82683
ELEMENT_SET_NO = 999
REV_AT_EPOCH   = 46308
BSTAR          = .32556E-3
MEAN_MOTION_DOT = .826E-5
MEAN_MOTION_DDOT = 0

CCSDS_OMM_VERS = 2.0
CREATION_DATE  = 
ORIGINATOR     = 

OBJECT_NAME    = UNKNOWN
OBJECT_ID      = 
CENTER_NAME    = EARTH
REF_FRAME      = TEME
TIME_SYSTEM    = UTC
MEAN_ELEMENT_THEORY = SGP/SGP4

EPOCH          = 2025-12-17T03:55:41.558880
MEAN_MOTION    = 13.69532860
ECCENTRICITY   = .0045086
INCLINATION    = 100.5291
RA_OF_ASC_NODE = 315.0817
ARG_OF_PERICENTER = 10.8804
MEAN_ANOMALY   = 349.3303

EPHEMERIS_TYPE = 0
CLASSIFICATION_TYPE = U
NORAD_CAT_ID   = 82693
ELEMENT_SET_NO = 999
REV_AT_EPOCH   = 55436
BSTAR          = .30452E-2
MEAN_MOTION_DOT = .2622E-4
MEAN_MOTION_DDOT = 0

CCSDS_OMM_VERS = 2.0
CREATION_DATE  = 
ORIGINATOR     = 

OBJECT_NAME    = UNKNOWN
OBJECT_ID      = 
CENTER_NAME    = EARTH
REF_FRAME      = TEME
TIME_SYSTEM    = UTC
MEAN_ELEMENT_THEORY = SGP/SGP4

EPOCH          = 2025-12-18T03:27:54.649728
MEAN_MOTION    = 13.29445843
ECCENTRICITY   = .0684305
INCLINATION    = 61.6110
RA_OF_ASC_NODE = 135.9998
ARG_OF_PERICENTER = 291.6399
MEAN_ANOMALY   = 61.3080

EPHEMERIS_TYPE = 0
CLASSIFICATION_TYPE = U
NORAD_CAT_ID   = 82698
ELEMENT_SET_NO = 999
REV_AT_EPOCH   = 53909
BSTAR          = .75581E-3
MEAN_MOTION_DOT = .1201E-4
MEAN_MOTION_DDOT = 0

CCSDS_OMM_VERS = 2.0
CREATION_DATE  = 
ORIGINATOR     = 

OBJECT_NAME    = UNKNOWN
OBJECT_ID      = 
CENTER_NAME    = EARTH
REF_FRAME      = TEME
TIME_SYSTEM    = UTC
MEAN_ELEMENT_THEORY = SGP/SGP4

EPOCH          = 2025-12-18T12:44:53.957184
MEAN_MOTION    = 12.90572982
ECCENTRICITY   = .0063456
INCLINATION    = 102.1633
RA_OF_ASC_NODE = 196.2465
ARG_OF_PERICENTER = 276.7232
MEAN_ANOMALY   = 82.6641

EPHEMERIS_TYPE = 0
CLASSIFICATION_TYPE = U
NORAD_CAT_ID   = 82708
ELEMENT_SET_NO = 999
REV_AT_EPOCH   = 52426
BSTAR          = .21598E-2
MEAN_MOTION_DOT = .521E-5
MEAN_MOTION_DDOT = 0

CCSDS_OMM_VERS = 2.0
CREATION_DATE  = 
ORIGINATOR     = 

OBJECT_NAME    = UNKNOWN
OBJECT_ID      = 
CENTER_NAME    = EARTH
REF_FRAME      = TEME
TIME_SYSTEM    = UTC
MEAN_ELEMENT_THEORY = SGP/SGP4

EPOCH          = 2025-12-19T15:20:56.085792
MEAN_MOTION    = 12.17753167
ECCENTRICITY   = .0831922
INCLINATION    = 67.9645
RA_OF_ASC_NODE = 133.9654
ARG_OF_PERICENTER = 6.2036
MEAN_ANOMALY   = 354.8529

EPHEMERIS_TYPE = 0
CLASSIFICATION_TYPE = U
NORAD_CAT_ID   = 82729
ELEMENT_SET_NO = 999
REV_AT_EPOCH   = 53604
BSTAR          = .63426E-4
MEAN_MOTION_DOT = -.23E-6
MEAN_MOTION_DDOT = 0

CCSDS_OMM_VERS = 2.0
CREATION_DATE  = 
ORIGINATOR     = 

OBJECT_NAME    = UNKNOWN
OBJECT_ID      = 
CENTER_NAME    = EARTH
REF_FRAME      = TEME
TIME_SYSTEM    = UTC
MEAN_ELEMENT_THEORY = SGP/SGP4

EPOCH          = 2025-12-18T09:48:47.150784
MEAN_MOTION    = 13.82726982
ECCENTRICITY   = .0173489
INCLINATION    = 99.0818
RA_OF_ASC_NODE = 148.5506
ARG_OF_PERICENTER = 277.9354
MEAN_ANOMALY   = 107.5027

EPHEMERIS_TYPE = 0
CLASSIFICATION_TYPE = U
NORAD_CAT_ID   = 82739
ELEMENT_SET_NO = 999
REV_AT_EPOCH   = 60689
BSTAR          = .14437E-2
MEAN_MOTION_DOT = .1718E-4
MEAN_MOTION_DDOT = 0

